[{"OBJECT_NAME":"STARLINK-1733","OBJECT_ID":"2020-070AJ","EPOCH":"2026-03-10T00:00:02.999808","MEAN_MOTION":15.74070769,"ECCENTRICITY":0.00019603,"INCLINATION":53.0418,"RA_OF_ASC_NODE":105.8439,"ARG_OF_PERICENTER":358.1851,"MEAN_ANOMALY":270.2405,"EPHEMERIS_TYPE":0,"CLASSIFICATION_TYPE":"U","NORAD_CAT_ID":46564,"ELEMENT_SET_NO":999,"REV_AT_EPOCH":596,"BSTAR":0.0010340128,"MEAN_MOTION_DOT":0.0015282,"MEAN_MOTION_DDOT":0},{"OBJECT_NAME":"STARLINK-36565","OBJECT_ID":"2026-014N","EPOCH":"2026-03-09T14:57:22.180896","MEAN_MOTION":15.75264916,"ECCENTRICITY":0.000127,"INCLINATION":97.2846,"RA_OF_ASC_NODE":313.5639,"ARG_OF_PERICENTER":105.7215,"MEAN_ANOMALY":254.419,"EPHEMERIS_TYPE":0,"CLASSIFICATION_TYPE":"U","NORAD_CAT_ID":67544,"ELEMENT_SET_NO":999,"REV_AT_EPOCH":856,"BSTAR":0.0015195,"MEAN_MOTION_DOT":0.00233575,"MEAN_MOTION_DDOT":0}]
